[{"OBJECT_NAME":"YAOGAN-43 01G","OBJECT_ID":"2024-148G","EPOCH":"2026-03-09T10:38:37.087584","MEAN_MOTION":15.28332833,"ECCENTRICITY":0.00073829,"INCLINATION":35.0006,"RA_OF_ASC_NODE":62.0013,"ARG_OF_PERICENTER":306.3543,"MEAN_ANOMALY":53.6492,"EPHEMERIS_TYPE":0,"CLASSIFICATION_TYPE":"U","NORAD_CAT_ID":60464,"ELEMENT_SET_NO":999,"REV_AT_EPOCH":8700,"BSTAR":0.00035872736,"MEAN_MOTION_DOT":0.00010133,"MEAN_MOTION_DDOT":0},{"OBJECT_NAME":"STARLINK-35265","OBJECT_ID":"2025-216Q","EPOCH":"2026-03-09T21:23:59.258112","MEAN_MOTION":15.30218001,"ECCENTRICITY":0.00010851,"INCLINATION":53.1584,"RA_OF_ASC_NODE":332.0166,"ARG_OF_PERICENTER":102.2961,"MEAN_ANOMALY":257.8161,"EPHEMERIS_TYPE":0,"CLASSIFICATION_TYPE":"U","NORAD_CAT_ID":65748,"ELEMENT_SET_NO":999,"REV_AT_EPOCH":2549,"BSTAR":0.0010071541,"MEAN_MOTION_DOT":0.00029605,"MEAN_MOTION_DDOT":0}]
